STARLINK-30291          
1 57856U 23141S   26068.85312469  .00000165  00000+0  17704-4 0  9996
2 57856  53.1592 283.3202 0001199  74.2697 285.8436 15.30188197140355
TRANSPORTER-12 OBJECT AZ
1 62656U 25009AZ  26068.71026235  .00016057  00000+0  54903-3 0  9991
2 62656  97.3981 151.9913 0000987  45.3581 314.7740 15.30349724 63792
